[{"id":"2023123979","name":"GJERMESØY","registrationMark":"N 0128VV","radioCallSign":"LH5660","municipalityCode":"1860","length":10.66,"enginePower":440,"owners":[{"id":"929675800","entityType":"COMPANY","name":"GJERMESØY AS","postalCode":"8372","city":"GRAVDAL"}]},{"id":"2023123977","name":"K. NYVOLL","registrationMark":"M 0225G","radioCallSign":"LCGQ","municipalityCode":"1532","width":12.0,"length":53.2,"enginePower":3000,"owners":[{"id":"927395142","entityType":"COMPANY","name":"LHN FISKERI AS","postalCode":"6055","city":"GODØYA"}]},{"id":"2023123976","name":"LØVEN","registrationMark":"VT0004S","radioCallSign":"LH5254","municipalityCode":"3804","width":5.1,"length":10.66,"enginePower":300,"owners":[{"id":"982928486","entityType":"COMPANY","name":"LØVE ARNE","postalCode":"3221","city":"SANDEFJORD"}]},{"id":"2023123954","name":"JULIE PAULINE","registrationMark":"TF0066BD","radioCallSign":"LGAS","municipalityCode":"5443","width":9.5,"length":44.6,"enginePower":1000,"owners":[{"id":"964556393","entityType":"COMPANY","name":"VIDJENES AS","postalCode":"9991","city":"BÅTSFJORD"}]},{"id":"2023123934","name":"POLARSTJERNA","registrationMark":"TF0061VS","radioCallSign":"LK4843","municipalityCode":"5405","width":5.06,"length":10.46,"enginePower":300,"owners":[{"id":"917825467","entityType":"COMPANY","name":"VARANGER TRADING AS","postalCode":"9802","city":"VESTRE JAKOBSELV"}]},{"id":"2023123876","name":"SKVULPEN","registrationMark":"VN0007F","municipalityCode":"3004","width":2.35,"length":5.8,"enginePower":80,"owners":[{"id":"917947325","entityType":"COMPANY","name":"PEDERSEN KYSTFISKE","postalCode":"1614","city":"FREDRIKSTAD"}]},{"id":"2023123875","name":"HAVBLOMST","registrationMark":"TR0026ND","radioCallSign":"LH5224","municipalityCode":"5060","width":6.99,"length":14.95,"enginePower":625,"owners":[{"id":"925232092","entityType":"COMPANY","name":"HAVBLOMST AS","postalCode":"7900","city":"RØRVIK"}]},{"id":"2023123854","name":"NØRINGEN","registrationMark":"TF0038SE","radioCallSign":"LF7535","municipalityCode":"5421","width":4.15,"length":10.99,"enginePower":400,"owners":[{"id":"930023825","entityType":"COMPANY","name":"HEKKINGEN FISKERISELSKAP AS","postalCode":"9373","city":"BOTNHAMN"}]},{"id":"2023123814","name":"GADUS","registrationMark":"N 0042BØ","radioCallSign":"LD2588","municipalityCode":"1867","width":2.65,"length":7.82,"enginePower":33,"owners":[{"id":null,"entityType":"COMPANY","name":"HAVSULA KARSTEIN MARTIN OLSEN","postalCode":"8475","city":"STRAUMSJØEN"}]},{"id":"2023123774","name":"DAINORA","registrationMark":"N 0005Ø","radioCallSign":"LF7506","municipalityCode":"1868","width":4.05,"length":10.65,"enginePower":350,"owners":[{"id":"915732097","entityType":"COMPANY","name":"MINDAUGAS ZALOGA","postalCode":"8430","city":"MYRE"}]},{"id":"2023123755","name":"VÅGAL","registrationMark":"VL0001LS","municipalityCode":"4644","width":2.34,"length":7.07,"enginePower":115,"owners":[{"id":"979296207","entityType":"COMPANY","name":"SOGNEFJORD NATURKJØKKEN VIDAR AASEN","postalCode":"6879","city":"SOLVORN"}]},{"id":"2023123754","name":"KRISTINE","registrationMark":"TR0001OD","radioCallSign":"LH5483","municipalityCode":"5059","width":4.0,"length":8.7,"enginePower":240,"owners":[{"id":"915087086","entityType":"COMPANY","name":"GEIR HERMANSTAD","postalCode":"7310","city":"GJØLME"}]},{"id":"2023123747","name":"CRESCENT","registrationMark":"R 0408K","municipalityCode":"1149","width":2.1,"length":5.52,"enginePower":40,"owners":[{"id":"930482625","entityType":"COMPANY","name":"JENSEN","postalCode":"4280","city":"SKUDENESHAVN"}]},{"id":"2023123746","name":"KVITHOLMEN","registrationMark":"TF0101HV","radioCallSign":"LH5597","municipalityCode":"5433","width":6.95,"length":14.99,"enginePower":750,"owners":[{"id":"912177637","entityType":"COMPANY","name":"KVITHOLMEN FISKE AS","postalCode":"9593","city":"BREIVIKBOTN"}]},{"id":"2023123745","name":"MUNIN","registrationMark":"VL0008BN","radioCallSign":"LFNM","municipalityCode":"4601","width":14.0,"length":63.0,"enginePower":4000,"owners":[{"id":"914145538","entityType":"COMPANY","name":"OCEAN VENTURE AS","postalCode":"5868","city":"BERGEN"}]},{"id":"2023123728","name":"SHAWN","registrationMark":"TR0009ND","municipalityCode":"5060","width":1.93,"length":5.18,"enginePower":30,"owners":[{"id":"930693324","entityType":"COMPANY","name":"ESKIL FJÆR","postalCode":"7940","city":"OTTERSØY"}]},{"id":"2023123726","name":"SKUMNISSEN III","registrationMark":"TF0077V","radioCallSign":"LK4921","municipalityCode":"5404","width":3.55,"length":10.61,"enginePower":156,"owners":[{"id":"888438262","entityType":"COMPANY","name":"JAN EINAR HANSEN","postalCode":"9950","city":"VARDØ"}]},{"id":"2023123706","name":"SOLO","registrationMark":"VL0016ØN","radioCallSign":"LH5672","municipalityCode":"4626","width":3.0,"length":7.8,"enginePower":330,"owners":[{"id":"923111786","entityType":"COMPANY","name":"BOGASKJÆR AS","postalCode":"5381","city":"GLESVÆR"}]},{"id":"2023123705","name":"SVARTHAV","registrationMark":"N 0002FE","radioCallSign":"LF7514","municipalityCode":"1841","width":5.0,"length":10.66,"enginePower":380,"owners":[{"id":"987371862","entityType":"COMPANY","name":"BJ INVEST AS","postalCode":"8209","city":"FAUSKE"}]},{"id":"2023123670","name":"KARINE H","registrationMark":"VL0062AV","radioCallSign":"JXRX","imoNumber":"9252515","municipalityCode":"4625","width":16.0,"length":70.5,"enginePower":7600,"owners":[{"id":"927941147","entityType":"COMPANY","name":"HALSTENSEN PRAWNS AS","postalCode":"5399","city":"BEKKJARVIK"}]},{"id":"2023123669","name":"KORSNESJENTA","registrationMark":"TF0200A","radioCallSign":"LH5516","municipalityCode":"5403","width":5.4,"length":10.65,"enginePower":330,"owners":[{"id":"829420112","entityType":"COMPANY","name":"KORSNESJENTA AS","postalCode":"9519","city":"KVIBY"}]},{"id":"2023123667","name":"LOJAL 2","registrationMark":"TF0005S","municipalityCode":"5427","width":2.12,"length":5.3,"enginePower":40,"owners":[{"id":"927079410","entityType":"COMPANY","name":"JACOBSENS FISK OG FANGST","postalCode":"9193","city":"NIKKEBY"}]},{"id":"2023123666","name":"SNIKEN","registrationMark":"TF0077K","radioCallSign":"LM8447","municipalityCode":"5423","width":2.6,"length":7.99,"enginePower":50,"owners":[{"id":"929033698","entityType":"COMPANY","name":"PEDERSEN","postalCode":"9136","city":"VANNAREID"}]},{"id":"2022123647","name":"HOLSTUS","registrationMark":"TF0004HD","radioCallSign":"LD8275","municipalityCode":"5402","width":1.82,"length":4.23,"enginePower":25,"owners":[{"id":"916802943","entityType":"COMPANY","name":"HOLST FISKERI ENK","postalCode":"9419","city":"SØRVIK"}]},{"id":"2022123646","name":"KAMSØY","registrationMark":"VL0005AV","radioCallSign":"LE4336","municipalityCode":"4625","width":3.0,"length":7.87,"enginePower":156,"owners":[{"id":"***********","entityType":"PERSON","name":"TARANGER INGMAR","postalCode":"5384","city":"TORANGSVÅG"}]},{"id":"2022123628","name":"KAMPEN","registrationMark":"M 0005HØ","radioCallSign":"LF7518","municipalityCode":"1515","width":4.15,"length":10.99,"enginePower":355,"owners":[{"id":"869231312","entityType":"COMPANY","name":"SÆVIK SIGVALD FR","postalCode":"6094","city":"LEINØY"}]},{"id":"2022123627","name":"IRENE","registrationMark":"TF0056T","municipalityCode":"5401","width":2.2,"length":5.49,"enginePower":55,"owners":[{"id":"870892012","entityType":"COMPANY","name":"HANS IVAR ROBERTSEN","postalCode":"9103","city":"KVALØYA"}]},{"id":"2022123626","name":"SKOARRA","registrationMark":"TF0018TN","municipalityCode":"5441","width":2.6,"length":6.01,"enginePower":140,"owners":[{"id":"987775947","entityType":"COMPANY","name":"TRULS BJØRNAR HALVARI","postalCode":"9843","city":"TANA"}]},{"id":"2022123625","name":"SUNNY LADY","registrationMark":"M 0120HØ","radioCallSign":"LGDZ","imoNumber":"9893632","municipalityCode":"1515","width":17.8,"length":86.5,"enginePower":7370,"owners":[{"id":"998540151","entityType":"COMPANY","name":"TEIGE REDERI AS","postalCode":"6092","city":"FOSNAVÅG"}]},{"id":"2022123605","name":"MIKI","registrationMark":"VL0039AV","radioCallSign":"LH5551","municipalityCode":"4625","width":3.15,"length":8.5,"enginePower":509,"owners":[{"id":"923107525","entityType":"COMPANY","name":"MIKI FISKERI AS","postalCode":"5396","city":"VESTRE VINNESVÅG"}]},{"id":"2022123590","name":"ELLEN K","registrationMark":"TF0019TN","municipalityCode":"5441","width":2.27,"length":6.3,"enginePower":140,"owners":[{"id":"889780762","entityType":"COMPANY","name":"VEGARD BLIEN","postalCode":"9845","city":"TANA"}]},{"id":"2022123589","name":"TINA","registrationMark":"N 0080VV","municipalityCode":"1860","width":2.65,"length":7.8,"enginePower":0,"owners":[{"id":"969649675","entityType":"COMPANY","name":"NORDLY BERNYLL","postalCode":"8372","city":"GRAVDAL"}]},{"id":"2022123586","name":"MAGNUSSEN","registrationMark":"VL0037B","municipalityCode":"4613","width":2.5,"length":7.2,"enginePower":22,"owners":[{"id":"969230720","entityType":"COMPANY","name":"VIDAR KVERNENES","postalCode":"5423","city":"BRANDASUND"}]},{"id":"2022123585","name":"VENTURA","registrationMark":"M 0044HØ","radioCallSign":"LH5049","municipalityCode":"1515","width":4.6,"length":14.96,"enginePower":625,"owners":[{"id":"921104510","entityType":"COMPANY","name":"VENTURA KYSTFISKE AS","postalCode":"6094","city":"LEINØY"}]},{"id":"2022123582","name":"NJORD","registrationMark":"TF0030M","radioCallSign":"LF7423","municipalityCode":"5434","width":3.9,"length":10.99,"enginePower":862,"owners":[{"id":"918304630","entityType":"COMPANY","name":"NJORD J. AS","postalCode":"9690","city":"HAVØYSUND"}]},{"id":"2022123581","name":"SVENØR","registrationMark":"TF0047T","radioCallSign":"JXSW","imoNumber":"9876816","municipalityCode":"5401","width":9.6,"length":30.33,"enginePower":990,"owners":[{"id":"994268511","entityType":"COMPANY","name":"FRUHOLMEN SEAFOOD AS","postalCode":"9010","city":"TROMSØ"}]},{"id":"2022123558","name":"NARUTO","registrationMark":"VL0010AM","radioCallSign":"LF7420","municipalityCode":"4632","width":2.5,"length":6.93,"enginePower":140,"owners":[{"id":"928532100","entityType":"COMPANY","name":"FISKER ANDERSEN","postalCode":"5953","city":"FONNES"}]},{"id":"2022123518","name":"EDNA SYNNØVE","registrationMark":"TR0018F","radioCallSign":"LCGV","imoNumber":"8502418","municipalityCode":"5014","width":8.0,"length":37.56,"enginePower":990,"owners":[{"id":"918634223","entityType":"COMPANY","name":"FRØYA KYSTFISKE AS","postalCode":"7270","city":"DYRVIK"}]},{"id":"2022123502","name":"KRABBELURE","registrationMark":"M 0002SM","municipalityCode":"1573","width":2.53,"length":5.96,"enginePower":100,"owners":[{"id":"996962288","entityType":"COMPANY","name":"VERONICA AS","postalCode":"6570","city":"SMØLA"}]},{"id":"2022123501","name":"MYRENG FISK 2","registrationMark":"TF0030BD","radioCallSign":"LH5431","municipalityCode":"5443","width":5.2,"length":10.95,"enginePower":500,"owners":[{"id":"828651552","entityType":"COMPANY","name":"MYRENG FISK AS","postalCode":"9990","city":"BÅTSFJORD"}]},{"id":"2022123499","name":"FORSØLGUTTEN","registrationMark":"TF0033H","radioCallSign":"LK2108","municipalityCode":"5406","width":3.3,"length":10.25,"enginePower":180,"owners":[{"id":"929751302","entityType":"COMPANY","name":"NAUSTVIK-VEST RUDI","postalCode":"9612","city":"FORSØL"}]},{"id":"2022123498","name":"STORA ROSA","registrationMark":"R 0062K","municipalityCode":"1149","width":2.6,"length":6.7,"enginePower":120,"owners":[{"id":"924601361","entityType":"COMPANY","name":"LOBSTER AS","postalCode":"4276","city":"VEAVÅGEN"}]},{"id":"2022123417","name":"SIMBA","registrationMark":"TR0087F","radioCallSign":"LF5729","municipalityCode":"5014","width":3.45,"length":9.65,"enginePower":320,"owners":[{"id":"980353249","entityType":"COMPANY","name":"FRØYA FISK OG SKALLDYR AS","postalCode":"7284","city":"MAUSUND"}]},{"id":"2022123398","name":"LINEA","registrationMark":"TF0032V","radioCallSign":"LF7461","municipalityCode":"5404","width":3.6,"length":10.66,"enginePower":0,"owners":[{"id":"986952314","entityType":"COMPANY","name":"CHRISTER HURTHI KARLSEN FISK OG EIENDOM","postalCode":"9950","city":"VARDØ"}]},{"id":"2022123397","name":"NORDHOLMEN","registrationMark":"TR0020F","radioCallSign":"LF7448","municipalityCode":"5014","width":4.05,"length":10.99,"enginePower":500,"owners":[{"id":"927430541","entityType":"COMPANY","name":"NORDHOLMEN FISK AS","postalCode":"7270","city":"DYRVIK"}]},{"id":"2022123364","name":"KVISLA","registrationMark":"AG0031LS","municipalityCode":"4205","width":2.35,"length":5.55,"enginePower":60,"owners":[{"id":"923949410","entityType":"COMPANY","name":"ODD HARRY HANSEN","postalCode":"4521","city":"LINDESNES"}]},{"id":"2022123339","name":"ASTRID","registrationMark":"AG0097LS","radioCallSign":"JXPZ","imoNumber":"9232943","municipalityCode":"4205","width":8.5,"length":35.69,"enginePower":990,"owners":[{"id":"814216292","entityType":"COMPANY","name":"LINDESNES FISKERISELSKAB AS","postalCode":"4514","city":"MANDAL"}]},{"id":"2022123338","name":"REBEKKA L","registrationMark":"VL0043KI","radioCallSign":"JXQO","imoNumber":"9851153","municipalityCode":"4602","width":8.2,"length":28.0,"enginePower":1400,"owners":[{"id":"999660541","entityType":"COMPANY","name":"REBEKKA L AS","postalCode":"6707","city":"RAUDEBERG"}]},{"id":"2022123337","name":"UREDD","registrationMark":"VL0035A","radioCallSign":"LH5562","municipalityCode":"4645","width":2.72,"length":7.95,"enginePower":250,"owners":[{"id":"997300319","entityType":"COMPANY","name":"KORKEN FISK DA","postalCode":"6984","city":"STONGFJORDEN"}]},{"id":"2022123137","name":"SJANTEN","registrationMark":"TF0078NK","radioCallSign":"LA8064","municipalityCode":"5435","width":2.6,"length":7.92,"enginePower":65,"owners":[{"id":"930625442","entityType":"COMPANY","name":"BROKS HAVFISKE","postalCode":"9762","city":"KAMØYVÆR"}]}]
